QIANFAN-60              
1 62790U 25016F   25325.59766039  .00000043  00000+0  48351-4 0  9991
2 62790  88.9744 105.2615 0016760  49.5451 310.7158 13.50977062 44377
QIANFAN-61              
1 62791U 25016G   25325.55632919  .00000097  00000+0  13189-3 0  9996
2 62791  88.9810 105.4141 0015719  49.1850 311.0661 13.50974139 44386
QIANFAN-62              
1 62792U 25016H   25325.56050142  .00000088  00000+0  11738-3 0  9998
2 62792  88.9757 105.2935 0017101  49.1540 311.1090 13.50984016 44370
QIANFAN-63              
1 62793U 25016J   25325.51114402  .00000090  00000+0  11996-3 0  9993
2 62793  88.9764 105.2488 0017271  54.2416 306.0338 13.50977136 44406
QIANFAN-64              
1 62794U 25016K   25325.55222606  .00000093  00000+0  12571-3 0  9997
2 62794  88.9750 105.2214 0015066  48.1616 312.0819 13.50979036 44405
QIANFAN-65              
1 62795U 25016L   25325.62222845  .00000099  00000+0  13382-3 0  9998
2 62795  88.9747 105.2409 0014933  49.6797 310.5657 13.50978034 44394
QIANFAN-66              
1 62796U 25016M   25325.57695400  .00000103  00000+0  14126-3 0  9997
2 62796  88.9766 105.2117 0015928  45.2851 314.9594 13.50982038 44432
QIANFAN-67              
1 62797U 25016N   25325.58115223  .00000097  00000+0  13118-3 0  9991
2 62797  88.9757 105.2389 0016062  51.7169 308.5424 13.50974907 44402
QIANFAN-68              
1 62798U 25016P   25325.57288417  .00000109  00000+0  14923-3 0  9996
2 62798  88.9760 105.2842 0016076  50.1122 310.1440 13.50977239 44383
QIANFAN-69              
1 62799U 25016Q   25325.58942529  .00000084  00000+0  11129-3 0  9996
2 62799  88.9739 105.1564 0016858  50.8344 309.4301 13.50980241 44420
QIANFAN-70              
1 62800U 25016R   25325.53163953  .00000117  00000+0  16258-3 0  9995
2 62800  88.9759 105.2964 0016236  42.0432 318.1962 13.50970765 44375
QIANFAN-71              
1 62801U 25016S   25325.52759115  .00000101  00000+0  13763-3 0  9997
2 62801  88.9754 105.2776 0016860  54.3255 305.9463 13.50978159 44379
QIANFAN-72              
1 62802U 25016T   25325.61813240  .00000100  00000+0  13554-3 0  9995
2 62802  88.9744 105.2837 0020252  60.1309 300.1851 13.50978108 44374
QIANFAN-73              
1 63159U 25046A   25325.49691812  .00000034  00000+0  34409-4 0  9998
2 63159  88.9750 322.2239 0014845 178.1895 181.9312 13.50973927 44545
QIANFAN-74              
1 63160U 25046B   25325.55443781  .00000031  00000+0  30110-4 0  9999
2 63160  88.9750 322.1064 0002010  86.4565 273.6816 13.50976041 44614
QIANFAN-75              
1 63161U 25046C   25325.54178166  .00000113  00000+0  15690-3 0  9997
2 63161  88.9752 322.3411 0015863 181.6661 178.4440 13.50988917 44485
QIANFAN-76              
1 63162U 25046D   25325.61219419 -.00000120  00000+0 -20462-3 0  9996
2 63162  88.9750 322.3147 0013405 181.1218 178.9905 13.50965887 44508
QIANFAN-77              
1 63163U 25046E   25325.54200037  .00000069  00000+0  40275-4 0  9990
2 63163  88.9752 320.5025 0015994 140.5328 219.7017 13.96075764 45495
QIANFAN-78              
1 63164U 25046F   25325.57918872  .00000015  00000+0  50506-5 0  9997
2 63164  88.9750 322.1822 0014706 183.9729 176.1307 13.50974684 44578
QIANFAN-79              
1 63165U 25046G   25325.53380789  .00000020  00000+0  11962-4 0  9992
2 63165  88.9754 322.2936 0014452 182.2179 177.8911 13.50975508 44518
QIANFAN-80              
1 63166U 25046H   25325.55031722  .00000082  00000+0  10800-3 0  9992
2 63166  88.9751 321.9992 0013298 186.0986 174.0005 13.50979624 44672
QIANFAN-81              
1 63167U 25046J   25325.60314022  .00000120  00000+0  16627-3 0  9992
2 63167  88.9751 322.0619 0014687 174.7157 185.4152 13.50996544 44633
QIANFAN-82              
1 63168U 25046K   25325.56273979  .00000077  00000+0  99884-4 0  9991
2 63168  88.9751 322.1098 0012570 181.7014 178.4096 13.50976369 44615
QIANFAN-83              
1 63169U 25046L   25325.61380112  .00000049  00000+0  47452-4 0  9999
2 63169  88.9752 321.9224 0014313 168.5846 191.5638 13.61969640 44724
QIANFAN-84              
1 63170U 25046M   25325.59071315 -.00000033  00000+0 -69207-4 0  9997
2 63170  88.9750 322.2398 0015637 179.7858 180.3302 13.50985921 44549
QIANFAN-85              
1 63171U 25046N   25325.58732924  .00000114  00000+0  15785-3 0  9996
2 63171  88.9751 322.1118 0012959 180.7571 179.3562 13.50981287 44613
QIANFAN-86              
1 63172U 25046P   25325.52158411  .00000093  00000+0  12551-3 0  9998
2 63172  88.9753 321.9803 0010719 183.7312 176.3761 13.50978063 44685
QIANFAN-87              
1 63173U 25046Q   25325.56692652  .00000014  00000+0  31078-5 0  9993
2 63173  88.9749 322.0882 0011539 179.1770 180.9402 13.50970995 44621
QIANFAN-88              
1 63174U 25046R   25325.58334477  .00000094  00000+0  12691-3 0  9990
2 63174  88.9752 322.0404 0011662 187.5156 172.5822 13.50975703 44652
QIANFAN-89              
1 63175U 25046S   25325.54610325  .00000094  00000+0  12743-3 0  9994
2 63175  88.9752 322.2333 0016289 180.4586 179.6553 13.50978457 44541
QIANFAN-90              
1 63176U 25046T   25325.57485118  .00000006  00000+0 -94850-5 0  9993
2 63176  88.9751 322.2028 0013319 177.3448 182.7776 13.50974623 44560
QIANFAN-91              
1 66033U 25233A   25325.61273943  .00000394  00000+0  21114-3 0  9992
2 66033  89.0007  64.4802 0021369 129.8904 230.4164 14.10928033  5020
QIANFAN-92              
1 66034U 25233B   25325.54311301  .00000520  00000+0  27451-3 0  9997
2 66034  88.9961  64.4837 0017095 102.8235 257.4862 14.12354939  5018
QIANFAN-93              
1 66035U 25233C   25325.60572392  .00000252  00000+0  12581-3 0  9994
2 66035  88.9965  64.4756 0017061 102.5540 257.7556 14.13652578  5027
QIANFAN-94              
1 66036U 25233D   25325.53935634  .00000472  00000+0  24647-3 0  9999
2 66036  88.9964  64.4842 0016444 102.0142 258.2888 14.12796312  5017
QIANFAN-95              
1 66037U 25233E   25325.63357088  .00000738  00000+0  30191-3 0  9998
2 66037  88.9965  64.4615 0016387 104.4990 255.8023 14.26189683  5038
QIANFAN-96              
1 66038U 25233F   25325.61460054  .00000461  00000+0  24764-3 0  9997
2 66038  88.9963  64.4770 0017631 104.2114 256.1031 14.11219075  5023
QIANFAN-97              
1 66039U 25233G   25324.90067029  .00000491  00000+0  25411-3 0  9997
2 66039  88.9967  64.5562 0017185 106.7576 253.5497 14.13281339  4920
QIANFAN-98              
1 66040U 25233H   25325.56295882  .00000667  00000+0  28325-3 0  9994
2 66040  88.9923  64.4692 0015833  98.4374 261.8614 14.24129677  5021
QIANFAN-99              
1 66041U 25233J   25325.53711211  .00000491  00000+0  25771-3 0  9998
2 66041  88.9943  64.4806 0016927 101.1032 259.2059 14.12575434  5015
QIANFAN-100             
1 66042U 25233K   25325.56238921  .00000668  00000+0  28107-3 0  9996
2 66042  88.9970  64.4587 0017356 105.8830 254.4277 14.24567660  5021
QIANFAN-101             
1 66043U 25233L   25325.62476955  .00000587  00000+0  23647-3 0  9999
2 66043  88.9966  64.4602 0016940 103.2068 257.1017 14.26656700  5037
QIANFAN-102             
1 66044U 25233M   25325.52781709  .00000422  00000+0  21095-3 0  9998
2 66044  88.9963  64.4824 0017163 104.7629 255.5462 14.14819824  5017
QIANFAN-103             
1 66045U 25233N   25325.53843653  .00000369  00000+0  19516-3 0  9992
2 66045  88.9964  64.4844 0016986 103.0199 257.2884 14.11565368  5012
QIANFAN-104             
1 66046U 25233P   25325.59882213  .00000510  00000+0  25622-3 0  9997
2 66046  88.9907  64.4578 0016479 104.4359 255.8658 14.14911808  5025
QIANFAN-105             
1 66047U 25233Q   25325.53009619  .00000216  00000+0  10537-3 0  9995
2 66047  88.9964  64.4834 0016999 103.9049 256.4030 14.14453504  5015
QIANFAN-106             
1 66048U 25233R   25325.10886502  .00000255  00000+0  12862-3 0  9999
2 66048  88.9963  64.5314 0017755 104.6238 255.6918 14.13104780  4954
QIANFAN-107             
1 66049U 25233S   25325.59832126  .00000372  00000+0  18649-3 0  9995
2 66049  88.9976  64.4768 0018274 105.8853 254.4350 14.14450824  5024
QIANFAN-108             
1 66050U 25233T   25325.10563620  .00000305  00000+0  15334-3 0  9998
2 66050  88.9965  64.5317 0017255 105.4314 254.8780 14.13901991  4958
